STARLINK-35798          
1 66292U 25247AD  25330.18100403  .00069213  00000+0  12400-2 0  9994
2 66292  53.1593 315.2305 0001251  92.9116 267.2036 15.49342764  5140
LVM3 R/B                
1 66310U 25249A   25329.93887192  .00041702  58406-6  11757-2 0  9992
2 66310  21.3470 147.1339 6671884 202.4104 103.8819  3.13793331   751
CMS-03 (GSAT-7R)        
1 66311U 25249B   25330.10082361 -.00000239  00000+0  00000+0 0  9996
2 66311   0.1837 271.7092 0004480 196.5718  86.8299  1.00271479   316
YAOGAN-46               
1 66313U 25250A   25323.71050301 -.00000009  00000+0  00000+0 0  9993
2 66313  20.0323 106.9378 0049242 131.7872 228.6447  5.35115933   968
SENTINEL-1D             
1 66315U 25251A   25329.92851653  .00000204  00000+0  52376-4 0  9998
2 66315  98.1939 335.1735 0001477 179.8573 180.2628 14.59751375  3083
QPS-SAR-14 (YACHIHOKO-I)
1 66316U 25252A   25329.86245449  .00005938  00000+0  51658-3 0  9993
2 66316  42.0032 167.8891 0007535  30.5311 329.5951 14.97441811  3005
ELECTRON R/B            
1 66317U 25252B   25329.98251058  .01162623  76705-5  19036-2 0  9990
2 66317  41.9920 154.6560 0156926  18.1171 342.5193 15.83385725  3169
ELECTRON KICK STAGE R/B 
1 66318U 25252C   25329.53456288  .01997810  76755-5  19930-2 0  9996
2 66318  41.9783 156.4777 0125609 168.7438 191.6276 15.95893211  3105
STARLINK-35442          
1 66319U 25253A   25330.16670139 -.02033741  00000+0 -33350-1 0  9994
2 66319  43.0001  81.6840 0001140 276.2536 303.7176 15.54785490  4367
STARLINK-34616          
1 66320U 25253B   25330.16670139 -.02044656  00000+0 -33541-1 0  9995
2 66320  42.9998  81.6785 0001154 273.1605 308.7247 15.54793270  4479
STARLINK-34615          
1 66321U 25253C   25330.16670139  .00644910  00000+0  66811-2 0  9998
2 66321  42.9996  81.6343 0002528 318.7478 281.0086 15.61814917  4315
STARLINK-35292          
1 66322U 25253D   25329.33336806 -.02055164  00000+0 -29295-1 0  9991
2 66322  42.9997  86.5727 0001339 267.2807 328.5633 15.58538813  4139
